[{"OBJECT_NAME":"IONOSFERA-M 1","OBJECT_ID":"2024-199A","EPOCH":"2026-03-09T23:07:06.038112","MEAN_MOTION":14.22735344,"ECCENTRICITY":0.00020871,"INCLINATION":98.7325,"RA_OF_ASC_NODE":303.1052,"ARG_OF_PERICENTER":75.9685,"MEAN_ANOMALY":284.1725,"EPHEMERIS_TYPE":0,"CLASSIFICATION_TYPE":"U","NORAD_CAT_ID":61735,"ELEMENT_SET_NO":999,"REV_AT_EPOCH":11359,"BSTAR":4.8219719e-5,"MEAN_MOTION_DOT":6.4e-7,"MEAN_MOTION_DDOT":0},{"OBJECT_NAME":"CZ-4B R\/B","OBJECT_ID":"1999-057C","EPOCH":"2026-03-09T17:33:39.955680","MEAN_MOTION":14.38345949,"ECCENTRICITY":0.00964743,"INCLINATION":98.7358,"RA_OF_ASC_NODE":119.3877,"ARG_OF_PERICENTER":151.3357,"MEAN_ANOMALY":209.3181,"EPHEMERIS_TYPE":0,"CLASSIFICATION_TYPE":"U","NORAD_CAT_ID":25942,"ELEMENT_SET_NO":999,"REV_AT_EPOCH":38129,"BSTAR":0.00015731364,"MEAN_MOTION_DOT":4.58e-6,"MEAN_MOTION_DDOT":0}]
